{
  "type": "FeatureCollection",
  "features": [
    {
      "type": "Feature",
      "properties": {
        "norad_id": 33972,
        "name": "COSMOS 2251 DEB",
        "group": "cosmos-2251-debris",
        "lat": -3.4612065420252027,
        "lon": 175.56228345744177,
        "alt_km": 688.0453769176975,
        "timestamp": "2025-12-20T09:36:02.042315+00:00",
        "meta_object_name": "COSMOS 2251 DEB",
        "meta_object_id": "1993-036FF",
        "meta_epoch": "2025-12-18T23:12:46.905120",
        "meta_mean_motion": 14.36266996,
        "meta_eccentricity": 0.01235996,
        "meta_inclination": 73.9933,
        "meta_ra_of_asc_node": 179.1952,
        "meta_arg_of_pericenter": 345.5656,
        "meta_mean_anomaly": 165.109,
        "meta_ephemeris_type": 0,
        "meta_classification_type": "U",
        "meta_norad_cat_id": 33972,
        "meta_element_set_no": 999,
        "meta_rev_at_epoch": 87163,
        "meta_bstar": 0.00091407124,
        "meta_mean_motion_dot": 2.886e-05,
        "meta_mean_motion_ddot": 0,
        "tle_line1": "1 33972U 93036FF  25352.96720955  .00002886  00000+0  91407-3 0  9992",
        "tle_line2": "2 33972  73.9933 179.1952 0123599 345.5656 165.1090 14.36266996871636"
      },
      "geometry": {
        "type": "Point",
        "coordinates": [
          175.56228345744177,
          -3.4612065420252027
        ]
      }
    },
    {
      "type": "Feature",
      "properties": {
        "norad_id": 33973,
        "name": "COSMOS 2251 DEB",
        "group": "cosmos-2251-debris",
        "lat": -0.737927829016039,
        "lon": 88.37923480828263,
        "alt_km": 745.4809835493397,
        "timestamp": "2025-12-20T09:36:02.042325+00:00",
        "meta_object_name": "COSMOS 2251 DEB",
        "meta_object_id": "1993-036FG",
        "meta_epoch": "2025-12-20T00:27:30.207168",
        "meta_mean_motion": 14.45398077,
        "meta_eccentricity": 0.0047406,
        "meta_inclination": 74.0087,
        "meta_ra_of_asc_node": 89.3018,
        "meta_arg_of_pericenter": 266.4033,
        "meta_mean_anomaly": 271.0924,
        "meta_ephemeris_type": 0,
        "meta_classification_type": "U",
        "meta_norad_cat_id": 33973,
        "meta_element_set_no": 999,
        "meta_rev_at_epoch": 88705,
        "meta_bstar": 0.00010408,
        "meta_mean_motion_dot": 3.43e-06,
        "meta_mean_motion_ddot": 0,
        "tle_line1": "1 33973U 93036FG  25354.01909962  .00000343  00000+0  10408-3 0  9996",
        "tle_line2": "2 33973  74.0087  89.3018 0047406 266.4033 271.0924 14.45398077887058"
      },
      "geometry": {
        "type": "Point",
        "coordinates": [
          88.37923480828263,
          -0.737927829016039
        ]
      }
    },
    {
      "type": "Feature",
      "properties": {
        "norad_id": 33975,
        "name": "COSMOS 2251 DEB",
        "group": "cosmos-2251-debris",
        "lat": 35.87095108508451,
        "lon": -121.14502087122659,
        "alt_km": 818.3872193454763,
        "timestamp": "2025-12-20T09:36:02.042335+00:00",
        "meta_object_name": "COSMOS 2251 DEB",
        "meta_object_id": "1993-036FJ",
        "meta_epoch": "2025-12-19T05:28:53.307264",
        "meta_mean_motion": 14.00537307,
        "meta_eccentricity": 0.0191115,
        "meta_inclination": 73.8018,
        "meta_ra_of_asc_node": 73.0471,
        "meta_arg_of_pericenter": 204.9448,
        "meta_mean_anomaly": 154.2359,
        "meta_ephemeris_type": 0,
        "meta_classification_type": "U",
        "meta_norad_cat_id": 33975,
        "meta_element_set_no": 999,
        "meta_rev_at_epoch": 85920,
        "meta_bstar": 0.000393,
        "meta_mean_motion_dot": 6.58e-06,
        "meta_mean_motion_ddot": 0,
        "tle_line1": "1 33975U 93036FJ  25353.22839476  .00000658  00000+0  39300-3 0  9993",
        "tle_line2": "2 33975  73.8018  73.0471 0191115 204.9448 154.2359 14.00537307859200"
      },
      "geometry": {
        "type": "Point",
        "coordinates": [
          -121.14502087122659,
          35.87095108508451
        ]
      }
    },
    {
      "type": "Feature",
      "properties": {
        "norad_id": 33980,
        "name": "COSMOS 2251 DEB",
        "group": "cosmos-2251-debris",
        "lat": 36.50526961019074,
        "lon": -147.4475291471015,
        "alt_km": 680.814436016125,
        "timestamp": "2025-12-20T09:36:02.042346+00:00",
        "meta_object_name": "COSMOS 2251 DEB",
        "meta_object_id": "1993-036FP",
        "meta_epoch": "2025-12-20T04:17:00.124224",
        "meta_mean_motion": 14.58690311,
        "meta_eccentricity": 0.0028246,
        "meta_inclination": 74.021,
        "meta_ra_of_asc_node": 45.2181,
        "meta_arg_of_pericenter": 189.1025,
        "meta_mean_anomaly": 229.8714,
        "meta_ephemeris_type": 0,
        "meta_classification_type": "U",
        "meta_norad_cat_id": 33980,
        "meta_element_set_no": 999,
        "meta_rev_at_epoch": 88903,
        "meta_bstar": 0.00038387,
        "meta_mean_motion_dot": 1.77e-05,
        "meta_mean_motion_ddot": 0,
        "tle_line1": "1 33980U 93036FP  25354.17847366  .00001770  00000+0  38387-3 0  9991",
        "tle_line2": "2 33980  74.0210  45.2181 0028246 189.1025 229.8714 14.58690311889037"
      },
      "geometry": {
        "type": "Point",
        "coordinates": [
          -147.4475291471015,
          36.50526961019074
        ]
      }
    },
    {
      "type": "Feature",
      "properties": {
        "norad_id": 33982,
        "name": "COSMOS 2251 DEB",
        "group": "cosmos-2251-debris",
        "lat": 37.615555075906705,
        "lon": -1.9446634999037544,
        "alt_km": 637.1732617762964,
        "timestamp": "2025-12-20T09:36:02.042356+00:00",
        "meta_object_name": "COSMOS 2251 DEB",
        "meta_object_id": "1993-036FR",
        "meta_epoch": "2025-12-20T01:28:43.346784",
        "meta_mean_motion": 14.60239552,
        "meta_eccentricity": 0.0075305,
        "meta_inclination": 74.0698,
        "meta_ra_of_asc_node": 345.9862,
        "meta_arg_of_pericenter": 28.4064,
        "meta_mean_anomaly": 32.6589,
        "meta_ephemeris_type": 0,
        "meta_classification_type": "U",
        "meta_norad_cat_id": 33982,
        "meta_element_set_no": 999,
        "meta_rev_at_epoch": 89266,
        "meta_bstar": 0.00032848,
        "meta_mean_motion_dot": 1.618e-05,
        "meta_mean_motion_ddot": 0,
        "tle_line1": "1 33982U 93036FR  25354.06161281  .00001618  00000+0  32848-3 0  9993",
        "tle_line2": "2 33982  74.0698 345.9862 0075305  28.4064  32.6589 14.60239552892663"
      },
      "geometry": {
        "type": "Point",
        "coordinates": [
          -1.9446634999037544,
          37.615555075906705
        ]
      }
    },
    {
      "type": "Feature",
      "properties": {
        "norad_id": 33983,
        "name": "COSMOS 2251 DEB",
        "group": "cosmos-2251-debris",
        "lat": 63.293420877928874,
        "lon": 167.3028924137678,
        "alt_km": 731.4969500308544,
        "timestamp": "2025-12-20T09:36:02.042366+00:00",
        "meta_object_name": "COSMOS 2251 DEB",
        "meta_object_id": "1993-036FS",
        "meta_epoch": "2025-12-20T03:28:40.472832",
        "meta_mean_motion": 14.50697945,
        "meta_eccentricity": 0.0021221,
        "meta_inclination": 74.0493,
        "meta_ra_of_asc_node": 133.137,
        "meta_arg_of_pericenter": 235.3679,
        "meta_mean_anomaly": 301.2528,
        "meta_ephemeris_type": 0,
        "meta_classification_type": "U",
        "meta_norad_cat_id": 33983,
        "meta_element_set_no": 999,
        "meta_rev_at_epoch": 88736,
        "meta_bstar": 0.00036474,
        "meta_mean_motion_dot": 1.41e-05,
        "meta_mean_motion_ddot": 0,
        "tle_line1": "1 33983U 93036FS  25354.14491288  .00001410  00000+0  36474-3 0  9995",
        "tle_line2": "2 33983  74.0493 133.1370 0021221 235.3679 301.2528 14.50697945887369"
      },
      "geometry": {
        "type": "Point",
        "coordinates": [
          167.3028924137678,
          63.293420877928874
        ]
      }
    },
    {
      "type": "Feature",
      "properties": {
        "norad_id": 33984,
        "name": "COSMOS 2251 DEB",
        "group": "cosmos-2251-debris",
        "lat": -62.566509178178556,
        "lon": -174.15671855848507,
        "alt_km": 676.2821520589796,
        "timestamp": "2025-12-20T09:36:02.042376+00:00",
        "meta_object_name": "COSMOS 2251 DEB",
        "meta_object_id": "1993-036FT",
        "meta_epoch": "2025-12-19T22:47:43.710144",
        "meta_mean_motion": 14.66420342,
        "meta_eccentricity": 0.0022711,
        "meta_inclination": 74.009,
        "meta_ra_of_asc_node": 333.1779,
        "meta_arg_of_pericenter": 169.2364,
        "meta_mean_anomaly": 222.133,
        "meta_ephemeris_type": 0,
        "meta_classification_type": "U",
        "meta_norad_cat_id": 33984,
        "meta_element_set_no": 999,
        "meta_rev_at_epoch": 89172,
        "meta_bstar": 0.00053474,
        "meta_mean_motion_dot": 2.939e-05,
        "meta_mean_motion_ddot": 0,
        "tle_line1": "1 33984U 93036FT  25353.94981146  .00002939  00000+0  53474-3 0  9996",
        "tle_line2": "2 33984  74.0090 333.1779 0022711 169.2364 222.1330 14.66420342891728"
      },
      "geometry": {
        "type": "Point",
        "coordinates": [
          -174.15671855848507,
          -62.566509178178556
        ]
      }
    }
  ]
}